C/2019 S4 (Lemmon),e,92.0595,63.1509,71.3712,231.2749,0.0002802,0.98511485,0.0000,04/07.9251/2020,2000,g 11.0,4.0
# From MPEC 2022-L66
A/2019 T1,e,120.8771,6.9447,91.0707,38.60738,0.0041086,0.88908714,2.4666,09/07.0/2022,2000,g 13.0,2.0
# From MPEC 2022-L66
C/2019 T2 (Lemmon),e,111.4859,155.6452,239.4224,2983,0.0000060,0.99911296,0.0000,04/22.4264/2021,2000,g  9.0,4.0
# From MPEC 2022-R68
C/2019 T3 (ATLAS),e,121.8484,139.5309,112.4133,3173,0.0000055,0.99812473,0.0000,03/03.9506/2021,2000,g  6.8,4.0
# From MPEC 2022-R68
C/2019 T4 (ATLAS),e,53.6306,199.9388,351.1928,992.2530,0.0000315,0.99572451,0.0000,06/09.0840/2022,2000,g  5.0,4.0
# From MPEC 2021-P47
P/2019 T5 (ATLAS),e,33.4680,247.6396,189.5612,7.995846,0.0435921,0.80934356,49.3698,09/07.0/2022,2000,g 15.0,4.0
# From MPEC 2021-P47
P/2019 T6 (PANSTARRS),e,18.6982,71.2456,328.9563,5.436341,0.0777578,0.62296722,80.3813,09/07.0/2022,2000,g 15.5,4.0
# From MPC118096
P/2019 U4 (PANSTARRS),e,11.6993,200.0009,181.0063,3.520342,0.1492199,0.47594666,161.7398,09/07.0/2022,2000,g 19.0,4.0
# From MPEC 2022-R68
C/2019 U5 (PANSTARRS),h,03/29.9131/2023,113.5213,2.6371,181.5103,1.001437,3.624023,2000,4.5,4.0
# From MPEC 2022-H04
C/2019 U6 (Lemmon),e,60.9892,235.7323,329.6163,358.4137,0.0001453,0.99744948,0.0000,06/18.5698/2020,2000,g 10.0,4.0
# From MPEC 2022-N37
C/2019 V1 (Borisov),e,61.8864,83.1780,51.1690,1501,0.0000169,0.99793736,0.0000,07/16.3726/2020,2000,g 11.0,4.0
# From MPEC 2022-L66
P/2019 V2 (Groeller),e,11.8082,189.1845,335.8452,7.503326,0.0479538,0.33116648,33.0308,09/07.0/2022,2000,g 10.0,4.0
# From MPC119998
P/2019 W1 (PANSTARRS),e,23.4722,35.3780,18.6945,4.549398,0.1015718,0.26687791,123.6765,09/07.0/2022,2000,g 12.9,4.0
# From MPEC 2021-P47
P/2019 X1 (Pruyne),e,10.2487,43.6691,36.7847,6.173296,0.0642582,0.30336247,73.4792,09/07.0/2022,2000,g 10.4,4.0
# From MPC119999
C/2019 Y1 (ATLAS),e,73.3368,31.5461,57.9324,85.99480,0.0012359,0.99034667,0.0000,03/15.7637/2020,2000,g 13.7,4.0
# From MPEC 2022-O08
C/2019 Y4 (ATLAS),e,45.3035,120.6137,177.4525,350.6627,0.0001501,0.99927496,0.0000,05/30.9947/2020,2000,g 11.8,6.0
# From MPEC 2020-L06
C/2019 Y4-A (ATLAS),h,05/31.0193/2020,45.7488,120.9748,177.2856,1.001414,0.252392,2000,11.6,6.0
# From MPEC 2020-L06
C/2019 Y4-B (ATLAS),e,45.3839,120.6701,177.4185,1498,0.0000170,0.99983045,0.0000,05/30.9968/2020,2000,g 12.8,6.0
# From MPEC 2020-L06
C/2019 Y4-C (ATLAS),h,05/30.9754/2020,45.5310,120.7010,177.3190,1.002136,0.253453,2000,12.7,6.0
# From MPEC 2020-L06
C/2019 Y4-D (ATLAS),e,45.5739,121.0787,177.4568,68.42319,0.0017414,0.99630519,0.0000,05/31.0975/2020,2000,g 12.5,6.0
# From MPEC 2021-P47
C/2019 Y5 (PANSTARRS),e,82.7816,51.7658,303.5353,787.9229,0.0000446,0.99375947,0.0000,08/18.1595/2019,2000,g 11.0,4.0
# From MPEC 2022-O08
A/2020 A1,e,149.0407,119.2396,302.5698,25.74032,0.0075472,0.93522680,7.6178,09/07.0/2022,2000,g 18.0,2.0
# From MPEC 2020-L06
C/2020 A2 (Iwamoto),e,120.6825,286.3399,68.1359,1298,0.0000211,0.99924869,0.0000,01/08.5538/2020,2000,g 13.5,4.0
# From MPEC 2022-N37
C/2020 A3 (ATLAS),h,06/29.4195/2019,146.6849,120.8003,268.4150,1.001167,5.763833,2000,8.0,4.0
# From MPEC 2022-P91
P/2020 A4 (PANSTARRS-Lemmon),e,24.9903,312.4073,144.7650,8.193984,0.0420205,0.65372718,42.8343,09/07.0/2022,2000,g 15.0,4.0
# From MPEC 2020-N08
A/2020 B1,e,18.5148,309.9975,154.7115,51.34793,0.0026787,0.96605250,2.6410,09/07.0/2022,2000,g 21.0,2.0
# From MPEC 2022-N37
C/2020 B3 (Rankin),e,20.7099,185.8498,324.9590,994.9501,0.0000314,0.99664302,0.0000,10/19.3997/2019,2000,g 13.0,4.0
# From MPEC 2022-H04
P/2020 B4 (Sheppard),e,11.6092,185.9792,342.1829,7.966688,0.0438316,0.19168921,12.7146,09/07.0/2022,2000,g 10.5,4.0
# From MPEC 2022-R68
C/2020 F2 (ATLAS),h,07/15.5496/2022,163.5859,250.2764,48.3508,1.005289,8.817075,2000,4.5,4.0
# From MPEC 2021-O56
C/2020 F3 (NEOWISE),e,129.0446,61.0477,37.3308,346.3009,0.0001529,0.99914687,0.0000,07/03.6204/2020,2000,g  7.5,5.2
# From MPEC 2022-R68
C/2020 F5 (MASTER),e,52.2388,350.5173,310.7001,198.8238,0.0003516,0.97825697,0.0000,03/18.4275/2021,2000,g  6.5,3.2
# From MPEC 2020-L06
C/2020 F6 (PANSTARRS),e,174.5830,207.9070,344.5994,412.6531,0.0001176,0.99149747,0.0000,04/11.7727/2020,2000,g 14.5,2.8
# From MPEC 2022-L66
C/2020 F7 (Lemmon),e,93.9507,321.8806,227.9559,623.1632,0.0000634,0.99144363,0.0000,11/13.8565/2021,2000,g  7.0,4.0
# From MPEC 2020-KB7
C/2020 F8 (SWAN),e,110.6984,259.9248,68.1534,262.0333,0.0002324,0.99836079,0.0000,05/27.5232/2020,2000,g 10.0,4.0
# From MPEC 2020-L06
P/2020 G1 (Pimentel),e,18.4982,240.1108,207.6133,3.608791,0.1437677,0.86014875,129.9075,09/07.0/2022,2000,g 17.0,4.0
# From MPEC 2020-L06
C/2020 H2 (Pruyne),e,124.9696,277.6580,26.6930,192.5854,0.0003688,0.99567706,0.0000,04/27.7767/2020,2000,g 18.0,4.0
# From MPEC 2020-HM1
C/2020 H3 (Wierzchos),p,06/05.7162/2020,62.5292,30.4456,2.300288,270.6227,2000,13.5,4.0
# From MPEC 2020-L06
C/2020 H4 (Leonard),e,84.5047,307.6998,117.5565,47.92780,0.0029705,0.98069344,0.0000,08/29.6038/2020,2000,g 15.0,3.2
# From MPEC 2022-N37
C/2020 H5 (Robinson),e,70.2483,210.6275,326.3726,3574,0.0000046,0.99738548,0.0000,12/11.3612/2020,2000,g  5.0,4.0
# From MPEC 2022-R68
C/2020 H6 (ATLAS),h,09/30.9470/2021,79.9763,213.7147,20.3320,1.000151,4.702675,2000,8.0,3.2
# From MPEC 2020-KB7
C/2020 H7 (Lemmon),e,135.9235,323.5194,82.6780,1405,0.0000187,0.99685380,0.0000,06/02.9510/2020,2000,g 11.0,4.0
# From MPEC 2021-N06
C/2020 H8 (PANSTARRS),e,99.6717,68.4158,128.9481,592.9141,0.0000683,0.99211376,0.0000,06/04.4932/2020,2000,g 10.5,4.0
# From MPEC 2022-ED3
A/2020 H9,e,137.8761,213.1687,312.8627,371.6744,0.0001375,0.99306719,0.0000,12/21.4419/2019,2000,g 18.0,2.0
# From MPEC 2022-P82
C/2020 J1 (SONEAR),h,04/18.6552/2021,142.3027,226.5937,341.7621,1.000806,3.354814,2000,8.5,3.2
# From MPEC 2022-R68
C/2020 K1 (PANSTARRS),e,89.6651,94.3552,213.9804,85509,0.0000000,0.99996406,0.0000,05/09.0675/2023,2000,g  5.5,4.0
# From MPEC 2021-N06
C/2020 K2 (PANSTARRS),h,08/06.2426/2020,91.0349,288.3738,67.3441,1.003834,8.879553,2000,10.8,4.0
# From MPEC 2020-KF9
C/2020 K3 (Leonard),p,06/01.0032/2020,129.0152,64.4924,1.583069,28.3546,2000,14.5,4.0
# From MPEC 2020-L06
C/2020 K4 (PANSTARRS),e,125.5781,264.1527,308.8428,23.93920,0.0084147,0.92671284,7.7182,09/07.0/2022,2000,g 16.5,4.0
# From MPEC 2021-R75
C/2020 K5 (PANSTARRS),h,06/05.5553/2021,67.1362,86.1664,249.6013,1.001468,1.536108,2000,11.0,4.0
# From MPEC 2022-PB4
C/2020 K6 (Rankin),h,09/15.7730/2021,103.6488,291.5379,44.3279,1.003542,5.868727,2000,8.0,4.0
# From MPEC 2022-L66
C/2020 K7 (PANSTARRS),e,32.0399,286.0693,358.2628,100.0781,0.0009845,0.93613110,1.0281,09/07.0/2022,2000,g  8.0,4.0
# From MPEC 2021-P47
C/2020 K8 (Catalina-ATLAS),h,09/14.6523/2020,31.4300,181.5471,259.9739,1.000156,0.472967,2000,15.0,3.2
# From MPEC 2021-BE3
P/2020 K9 (Lemmon-PANSTARRS),e,23.2098,166.2396,196.9899,4.201138,0.1144600,0.32140626,65.4447,09/07.0/2022,2000,g 12.5,4.0
# From MPEC 2021-U31
P/2020 M1 (PANSTARRS),e,8.5567,142.6955,72.5264,5.315495,0.0804245,0.47551602,79.1123,09/07.0/2022,2000,g 14.5,4.0
# From MPEC 2022-H30
C/2020 M3 (ATLAS),e,23.4733,71.1955,328.5060,27.01072,0.0070210,0.95305678,4.7829,09/07.0/2022,2000,g 14.5,4.0
# From MPEC 2022-OB6
A/2020 M4,h,11/24.2248/2020,160.1276,348.6212,104.6537,1.000735,5.952323,2000,14.5,2.0
# From MPEC 2022-P82
C/2020 M5 (ATLAS),h,08/19.8678/2021,93.2248,352.0936,126.3260,1.000387,3.003877,2000,9.0,4.0
# From MPEC 2022-GA9
C/2020 N1 (PANSTARRS),h,03/12.2443/2021,29.7114,279.9543,186.7556,1.000435,1.319581,2000,12.5,4.0
# From MPEC 2021-P47
C/2020 N2 (ATLAS),e,161.0351,257.1257,331.3005,103.9434,0.0009301,0.98273931,0.0000,08/23.8895/2020,2000,g 16.0,3.2
# From MPEC 2022-PB4
P/2020 O1 (Lemmon-PANSTARRS),e,5.2256,175.9750,104.5524,2.645114,0.2291065,0.11908612,196.4896,09/07.0/2022,2000,g 15.5,4.0
# From MPEC 2022-R68
C/2020 O2 (Amaral),h,08/28.6522/2021,71.7557,256.7625,10.3159,1.002087,4.862498,2000,8.0,3.2
# From MPEC 2020-SI8
P/2020 O3 (PANSTARRS),e,8.4433,266.8205,81.5744,4.648961,0.0983264,0.10351796,57.5263,09/07.0/2022,2000,g 12.0,4.0
# From MPEC 2021-BE3
C/2020 P1 (NEOWISE),h,10/20.2803/2020,45.1306,53.5005,8.8869,1.000284,0.341347,2000,14.0,3.2
# From MPEC 2022-O01
C/2020 P3 (ATLAS),h,04/21.0062/2021,61.8884,19.4674,82.2586,1.000528,6.812350,2000,6.0,4.0
# From MPEC 2022-PB4
C/2020 PV6 (PANSTARRS),e,128.2369,329.1466,71.3931,41.98934,0.0036224,0.94532788,1.2532,09/07.0/2022,2000,g 10.0,4.0
# From MPEC 2022-L66
C/2020 Q1 (Borisov),e,142.9280,52.4053,9.9334,60.67710,0.0020853,0.97830788,0.0000,08/14.4932/2020,2000,g 14.0,4.0
# From MPEC 2022-C56
C/2020 R2 (PANSTARRS),e,53.2283,195.0933,211.7624,404.9304,0.0001210,0.98841261,0.0000,02/24.6908/2022,2000,g  9.0,4.0
# From MPEC 2022-K19
C/2020 R4 (ATLAS),e,164.4598,323.2745,46.7156,99.60808,0.0009914,0.98967744,0.0000,03/02.0368/2021,2000,g 13.5,4.0
# From MPEC 2020-W26
P/2020 R5 (PANSTARRS),e,11.4486,272.9761,82.5291,4.985209,0.0885480,0.31469451,73.5597,09/07.0/2022,2000,g  9.5,6.0
# From MPEC 2021-Y10
C/2020 R6 (Rankin),e,82.8105,12.1774,271.9952,333.0823,0.0001621,0.99059578,0.0000,09/09.1162/2019,2000,g 11.0,4.0
# From MPEC 2022-R68
C/2020 R7 (ATLAS),h,09/16.2364/2022,114.8910,268.2818,347.8374,1.000150,2.955968,2000,7.0,3.2
# From MPEC 2021-BE3
P/2020 S1 (PANSTARRS),e,13.7317,129.4631,254.9688,5.989189,0.0672438,0.50767993,40.1880,09/07.0/2022,2000,g 14.0,4.0
# From MPEC 2021-BE3
C/2020 S2 (PANSTARRS),e,22.4028,197.6649,202.3156,10.20999,0.0302111,0.82798379,18.8491,09/07.0/2022,2000,g 17.0,4.0
# From MPEC 2022-C56
C/2020 S3 (Erasmus),e,19.9976,222.6383,350.0780,161.8593,0.0004786,0.99755235,0.0000,12/12.4315/2020,2000,g 13.5,3.2
# From MPEC 2022-R68
C/2020 S4 (PANSTARRS),h,02/09.2578/2023,20.5714,117.7232,20.9943,1.000883,3.369667,2000,8.5,3.2
# From MPEC 2021-BE3
P/2020 S5 (PANSTARRS),e,12.3511,316.0028,53.1583,4.052871,0.1207980,0.33861023,91.6918,09/07.0/2022,2000,g 14.5,4.0
# From MPEC 2022-R68
P/2020 S6 (Leonard),e,15.4616,242.5399,176.6767,3.599790,0.1443073,0.47945654,94.1208,09/07.0/2022,2000,g 16.0,4.0
